{
    "links": {
        "self": "http://www.neowsapp.com/rest/v1/neo/3508138?api_key=iIulBulltgU6a56xZRHN4H3l9WmuAYTsLGpBGhQ2"
    },
    "id": "3508138",
    "neo_reference_id": "3508138",
    "name": "(2010 DG)",
    "designation": "2010 DG",
    "nasa_jpl_url": "http://ssd.jpl.nasa.gov/sbdb.cgi?sstr=3508138",
    "absolute_magnitude_h": 24.8,
    "estimated_diameter": {
        "kilometers": {
            "estimated_diameter_min": 0.0291443905,
            "estimated_diameter_max": 0.0651688382
        },
        "meters": {
            "estimated_diameter_min": 29.1443904535,
            "estimated_diameter_max": 65.1688382168
        },
        "miles": {
            "estimated_diameter_min": 0.018109479,
            "estimated_diameter_max": 0.0404940262
        },
        "feet": {
            "estimated_diameter_min": 95.6180819754,
            "estimated_diameter_max": 213.8085311752
        }
    },
    "is_potentially_hazardous_asteroid": false,
    "close_approach_data": [
        {
            "close_approach_date": "2010-02-23",
            "close_approach_date_full": "2010-Feb-23 05:04",
            "epoch_date_close_approach": 1266901440000,
            "relative_velocity": {
                "kilometers_per_second": "7.9833660326",
                "kilometers_per_hour": "28740.1177172756",
                "miles_per_hour": "17857.9914782705"
            },
            "miss_distance": {
                "astronomical": "0.123964168",
                "lunar": "48.222061352",
                "kilometers": "18544775.48912216",
                "miles": "11523189.151559408"
            },
            "orbiting_body": "Earth"
        }
    ],
    "orbital_data": {
        "orbit_id": "6",
        "orbit_determination_date": "2017-04-06 08:58:20",
        "first_observation_date": "2010-02-16",
        "last_observation_date": "2010-02-17",
        "data_arc_in_days": 1,
        "observations_used": 20,
        "orbit_uncertainty": "9",
        "minimum_orbit_intersection": ".116798",
        "jupiter_tisserand_invariant": "4.225",
        "epoch_osculation": "2455244.5",
        "eccentricity": ".3272809357407122",
        "semi_major_axis": "1.626397679653605",
        "inclination": "13.88755449310319",
        "ascending_node_longitude": "146.0262437548679",
        "orbital_period": "757.5975227662399",
        "perihelion_distance": "1.09410872517005",
        "perihelion_argument": "20.72707842659698",
        "aphelion_distance": "2.15868663413716",
        "perihelion_time": "2455265.455922908573",
        "mean_anomaly": "350.0420315267925",
        "mean_motion": ".4751863478717837",
        "equinox": "J2000",
        "orbit_class": {
            "orbit_class_type": "AMO",
            "orbit_class_description": "Near-Earth asteroid orbits similar to that of 1221 Amor",
            "orbit_class_range": "1.017 AU < q (perihelion) < 1.3 AU"
        }
    },
    "is_sentry_object": false
}